FLOCK 2K-41             
1 42875U 17042BC  17345.77908872  .00009910  00000-0  29133-3 0  9998
2 42875  96.9942 246.8913 0014398  62.5230 297.7476 15.35185305 22870
